NORAD_CAT_ID,OBJECT_NAME,OBJECT_TYPE,EPOCH,MEAN_MOTION,ECCENTRICITY,INCLINATION,RA_OF_ASC_NODE,ARG_OF_PERICENTER,MEAN_ANOMALY,BSTAR,MEAN_MOTION_DOT,MEAN_MOTION_DDOT,TLE_LINE0,TLE_LINE1,TLE_LINE2,SEMIMAJOR_AXIS,PERIOD,APOGEE,PERIGEE,DECAYED
53734.0,STARLINK-4616,PAYLOAD,2023-11-29 04:26:36,15.08834024,0.0001667,53.2176,26.9683,79.8435,280.2745,0.00045233,6.917e-05,0.0,0 STARLINK-4616,1 53734U 22107AL  23333.18514850  .00006917  00000-0  45233-3 0  9993,2 53734  53.2176  26.9683 0001667  79.8435 280.2745 15.08834024 68421,6917.899,95.438,540.917,538.61,0.0
53734.0,STARLINK-4616,PAYLOAD,2023-11-29 10:48:08,15.08849144,0.0001738,53.2181,25.7766,83.3152,276.8037,0.00052409,8.065e-05,0.0,0 STARLINK-4616,1 53734U 22107AL  23333.45010114  .00008065  00000-0  52409-3 0  9996,2 53734  53.2181  25.7766 0001738  83.3152 276.8037 15.08849144 68469,6917.852,95.437,540.92,538.515,0.0
53734.0,STARLINK-4616,PAYLOAD,2023-11-29 23:31:13,15.0884667,0.0002182,53.2192,23.4026,116.019,244.1027,3.0719e-05,2.01e-06,0.0,0 STARLINK-4616,1 53734U 22107AL  23333.98001910  .00000201  00000-0  30719-4 0  9993,2 53734  53.2192  23.4026 0002182 116.0190 244.1027 15.08846670 68542,6917.86,95.437,541.234,538.216,0.0
53734.0,STARLINK-4616,PAYLOAD,2023-12-01 12:05:05,15.08843953,0.0001962,53.2185,16.5589,87.7085,272.4132,-1.7921e-06,-3.17e-06,0.0,0 STARLINK-4616,1 53734U 22107AL  23335.50354107 -.00000317  00000-0 -17921-5 0  9993,2 53734  53.2185  16.5589 0001962  87.7085 272.4132 15.08843953 68770,6917.868,95.437,541.091,538.376,0.0
53734.0,STARLINK-4616,PAYLOAD,2023-12-02 11:55:50,15.08888268,0.000192,53.2186,12.0964,80.0794,280.0415,0.00088365,0.00013822,0.0,0 STARLINK-4616,1 53734U 22107AL  23336.49711779  .00013822  00000-0  88365-3 0  9995,2 53734  53.2186  12.0964 0001920  80.0794 280.0415 15.08888268 68920,6917.733,95.435,540.926,538.27,0.0
53734.0,STARLINK-4616,PAYLOAD,2023-12-03 02:14:21,15.08821191,0.000189,53.2179,9.422,92.3032,267.8177,-0.00043477,-7.197e-05,0.0,0 STARLINK-4616,1 53734U 22107AL  23337.09330677 -.00007197  00000-0 -43477-3 0  9991,2 53734  53.2179   9.4220 0001890  92.3032 267.8177 15.08821191 69015,6917.938,95.439,541.11,538.495,0.0
53734.0,STARLINK-4616,PAYLOAD,2023-12-03 08:35:54,15.08814234,0.0001679,53.2185,8.2287,93.6864,266.432,-0.00047268,-7.798e-05,0.0,0 STARLINK-4616,1 53734U 22107AL  23337.35827098 -.00007798  00000-0 -47268-3 0  9997,2 53734  53.2185   8.2287 0001679  93.6864 266.4320 15.08814234 69682,6917.959,95.439,540.986,538.663,0.0
53734.0,STARLINK-4616,PAYLOAD,2023-12-04 11:37:28,15.08841249,0.0002462,53.2197,3.1727,63.2846,296.8398,-5.1256e-05,-1.104e-05,0.0,0 STARLINK-4616,1 53734U 22107AL  23338.48435291 -.00001104  00000-0 -51256-4 0  9990,2 53734  53.2197   3.1727 0002462  63.2846 296.8398 15.08841249 69220,6917.877,95.437,541.445,538.038,0.0
53734.0,STARLINK-4616,PAYLOAD,2023-12-05 08:17:28,15.0887131,0.0002104,53.2185,359.3112,77.0235,283.0992,0.00099232,0.00015554,0.0,0 STARLINK-4616,1 53734U 22107AL  23339.34547014  .00015554  00000-0  99232-3 0  9990,2 53734  53.2185 359.3112 0002104  77.0235 283.0992 15.08871310 69353,6917.785,95.436,541.105,538.194,0.0
53734.0,STARLINK-4616,PAYLOAD,2023-12-06 04:57:28,15.08855198,0.0002003,53.2179,355.4457,83.4666,276.6554,0.00011564,1.553e-05,0.0,0 STARLINK-4616,1 53734U 22107AL  23340.20658364  .00001553  00000-0  11564-3 0  9994,2 53734  53.2179 355.4457 0002003  83.4666 276.6554 15.08855198 69484,6917.834,95.437,541.085,538.313,0.0
53734.0,STARLINK-4616,PAYLOAD,2023-12-06 06:32:51,15.08854326,0.0002008,53.2178,355.148,85.1724,274.9497,0.00010771,1.427e-05,0.0,0 STARLINK-4616,1 53734U 22107AL  23340.27282309  .00001427  00000-0  10771-3 0  9992,2 53734  53.2178 355.1480 0002008  85.1724 274.9497 15.08854326 70127,6917.837,95.437,541.091,538.312,0.0
53734.0,STARLINK-4616,PAYLOAD,2023-12-07 04:48:16,15.08833519,0.0002077,53.2188,350.9863,89.9148,270.2082,-0.00021486,-3.706e-05,0.0,0 STARLINK-4616,1 53734U 22107AL  23341.20018902 -.00003706  00000-0 -21486-3 0  9991,2 53734  53.2188 350.9863 0002077  89.9148 270.2082 15.08833519 69638,6917.9,95.438,541.202,538.328,0.0
53734.0,STARLINK-4616,PAYLOAD,2023-12-07 06:23:39,15.08837884,0.0002099,53.2184,350.6879,90.9066,269.2166,-0.00023326,-3.999e-05,0.0,0 STARLINK-4616,1 53734U 22107AL  23341.26642942 -.00003999  00000-0 -23326-3 0  9993,2 53734  53.2184 350.6879 0002099  90.9066 269.2166 15.08837884 70275,6917.887,95.438,541.204,538.3,0.0
53734.0,STARLINK-4616,PAYLOAD,2023-12-08 09:25:12,15.08844318,0.0001985,53.2176,345.6339,80.7211,279.4006,0.00015424,2.168e-05,0.0,0 STARLINK-4616,1 53734U 22107AL  23342.39250830  .00002168  00000-0  15424-3 0  9994,2 53734  53.2176 345.6339 0001985  80.7211 279.4006 15.08844318 69817,6917.867,95.437,541.105,538.359,0.0
53734.0,STARLINK-4616,PAYLOAD,2023-12-09 09:15:59,15.08844528,0.0002017,53.2174,341.1666,82.1196,278.0025,0.00019816,2.867e-05,0.0,0 STARLINK-4616,1 53734U 22107AL  23343.38610905  .00002867  00000-0  19816-3 0  9992,2 53734  53.2174 341.1666 0002017  82.1196 278.0025 15.08844528 69969,6917.867,95.437,541.127,538.336,0.0
53734.0,STARLINK-4616,PAYLOAD,2023-12-10 09:06:47,15.08838396,0.0002211,53.2186,336.7044,81.8391,278.2852,-9.4699e-05,-1.795e-05,0.0,0 STARLINK-4616,1 53734U 22107AL  23344.37971409 -.00001795  00000-0 -94699-4 0  9995,2 53734  53.2186 336.7044 0002211  81.8391 278.2852 15.08838396 70116,6917.885,95.438,541.28,538.221,0.0
53734.0,STARLINK-4616,PAYLOAD,2023-12-11 05:46:48,15.08842924,0.0002011,53.219,332.8406,92.1025,268.0197,4.9454e-05,4.99e-06,0.0,0 STARLINK-4616,1 53734U 22107AL  23345.24083346  .00000499  00000-0  49454-4 0  9993,2 53734  53.2190 332.8406 0002011  92.1025 268.0197 15.08842924 70871,6917.871,95.437,541.128,538.345,0.0
53734.0,STARLINK-4616,PAYLOAD,2023-12-12 04:02:11,15.08842982,0.0001885,53.2178,328.6819,90.3936,269.7272,0.00014739,2.059e-05,0.0,0 STARLINK-4616,1 53734U 22107AL  23346.16819079  .00002059  00000-0  14739-3 0  9996,2 53734  53.2178 328.6819 0001885  90.3936 269.7272 15.08842982 70389,6917.871,95.437,541.04,538.432,0.0
53734.0,STARLINK-4616,PAYLOAD,2023-12-12 05:37:34,15.08844879,0.0001912,53.2181,328.385,89.9329,270.1882,0.00016812,2.389e-05,0.0,0 STARLINK-4616,1 53734U 22107AL  23346.23443036  .00002389  00000-0  16812-3 0  9990,2 53734  53.2181 328.3850 0001912  89.9329 270.1882 15.08844879 71028,6917.865,95.437,541.053,538.408,0.0
53734.0,STARLINK-4616,PAYLOAD,2023-12-13 03:52:59,15.08841936,0.0002035,53.2193,324.2296,103.588,256.5339,5.4886e-05,5.85e-06,0.0,0 STARLINK-4616,1 53734U 22107AL  23347.16179495  .00000585  00000-0  54886-4 0  9998,2 53734  53.2193 324.2296 0002035 103.5880 256.5339 15.08841936 70533,6917.874,95.437,541.147,538.332,0.0
53734.0,STARLINK-4616,PAYLOAD,2023-12-14 05:19:09,15.08842362,0.0002087,53.2194,319.4715,109.1167,251.0051,4.192e-05,3.79e-06,0.0,0 STARLINK-4616,1 53734U 22107AL  23348.22163360  .00000379  00000-0  41920-4 0  9996,2 53734  53.2194 319.4715 0002087 109.1167 251.0051 15.08842362 70695,6917.873,95.437,541.182,538.294,0.0
53734.0,STARLINK-4616,PAYLOAD,2023-12-15 03:34:33,15.08839926,0.0001799,53.2175,315.2968,97.9123,262.2074,8.7516e-05,1.105e-05,0.0,0 STARLINK-4616,1 53734U 22107AL  23349.14899368  .00001105  00000-0  87516-4 0  9991,2 53734  53.2175 315.2968 0001799  97.9123 262.2074 15.08839926 71460,6917.881,95.438,540.99,538.501,0.0
53734.0,STARLINK-4616,PAYLOAD,2023-12-16 03:25:20,15.08834876,0.0001737,53.2176,310.8353,98.3944,261.7245,2.6806e-05,1.39e-06,0.0,0 STARLINK-4616,1 53734U 22107AL  23350.14260229  .00000139  00000-0  26806-4 0  9992,2 53734  53.2176 310.8353 0001737  98.3944 261.7245 15.08834876 70987,6917.896,95.438,540.963,538.559,0.0
53734.0,STARLINK-4616,PAYLOAD,2023-12-16 05:00:43,15.08836723,0.000174,53.2177,310.54,86.9707,273.1485,4.1016e-05,3.65e-06,0.0,0 STARLINK-4616,1 53734U 22107AL  23350.20884230  .00000365  00000-0  41016-4 0  9994,2 53734  53.2177 310.5400 0001740  86.9707 273.1485 15.08836723 71620,6917.89,95.438,540.959,538.552,0.0
53734.0,STARLINK-4616,PAYLOAD,2023-12-17 03:16:07,15.08845121,0.0001684,53.2172,306.382,84.2001,275.9183,0.00010907,1.448e-05,0.0,0 STARLINK-4616,1 53734U 22107AL  23351.13619783  .00001448  00000-0  10907-3 0  9993,2 53734  53.2172 306.3820 0001684  84.2001 275.9183 15.08845121 71132,6917.865,95.437,540.895,538.565,0.0
53734.0,STARLINK-4616,PAYLOAD,2023-12-17 04:51:30,15.08846918,0.0001686,53.2174,306.0842,84.4366,275.6818,0.00015732,2.217e-05,0.0,0 STARLINK-4616,1 53734U 22107AL  23351.20243634  .00002217  00000-0  15732-3 0  9995,2 53734  53.2174 306.0842 0001686  84.4366 275.6818 15.08846918 71770,6917.859,95.437,540.891,538.558,0.0
53734.0,STARLINK-4616,PAYLOAD,2023-12-18 03:06:54,15.08858197,0.0001602,53.2167,301.9221,85.6146,274.5029,0.00039454,6e-05,0.0,0 STARLINK-4616,1 53734U 22107AL  23352.12979221  .00006000  00000-0  39454-3 0  9996,2 53734  53.2167 301.9221 0001602  85.6146 274.5029 15.08858197 71914,6917.825,95.436,540.798,538.582,0.0
53734.0,STARLINK-4616,PAYLOAD,2023-12-19 02:57:42,15.08835803,0.0001459,53.2161,297.4606,78.9021,281.2136,-1.7508e-05,-5.67e-06,0.0,0 STARLINK-4616,1 53734U 22107AL  23353.12340315 -.00000567  00000-0 -17508-4 0  9994,2 53734  53.2161 297.4606 0001459  78.9021 281.2136 15.08835803 71431,6917.893,95.438,540.768,538.749,0.0
53734.0,STARLINK-4616,PAYLOAD,2023-12-20 02:48:29,15.08842323,0.0001581,53.2178,293.0013,77.6422,282.4747,0.00017904,2.563e-05,0.0,0 STARLINK-4616,1 53734U 22107AL  23354.11700485  .00002563  00000-0  17904-3 0  9997,2 53734  53.2178 293.0013 0001581  77.6422 282.4747 15.08842323 72213,6917.873,95.437,540.832,538.645,0.0
53734.0,STARLINK-4616,PAYLOAD,2023-12-21 02:39:15,15.08854119,0.0001528,53.2173,288.5376,90.2805,269.8362,0.0003905,5.935e-05,0.0,0 STARLINK-4616,1 53734U 22107AL  23355.11059853  .00005935  00000-0  39050-3 0  9996,2 53734  53.2173 288.5376 0001528  90.2805 269.8362 15.08854119 72360,6917.837,95.437,540.759,538.645,0.0
